ID,Name,City,Country,IATA,ICAO,Latitude,Longitude,Altitude,Timezone
149,Rouyn Noranda Airport,Rouyn,Canada,YUY,CYUY,48.20610046386719,-78.83560180664062,988,-5.0
5474,La Tabatière Airport,La Tabatière,Canada,ZLT,CTU5,50.8307991027832,-58.97560119628906,102,-4.0
9418,Auburn University Regional Airport,Auburn,United States,AUO,KAUO,32.615101,-85.433998,777,-6.0
4265,Martha's Vineyard Airport,Vineyard Haven MA,United States,MVY,KMVY,41.3931007385,-70.6143035889,67,-5.0
66,Hudson Bay Airport,Hudson Bay,Canada,YHB,CYHB,52.8166999817,-102.310997009,1175,-6.0
6215,Long Lellang Airport,Long Datih,Malaysia,LGL,WBGF,3.42100000381,115.153999329,1400,8.0
7162,Larsen Bay Airport,Larsen Bay,United States,KLN,PALB,57.5350990295,-153.977996826,87,-9.0
1272,Niort-Souché Airport,Niort,France,NIT,LFBN,46.313477,-0.394529,203,1.0
4059,Jomo Kenyatta International Airport,Nairobi,Kenya,NBO,HKJK,-1.31923997402,36.9277992249,5330,3.0
559,RAF Wyton,Wyton,United Kingdom,QUY,EGUY,52.3572006226,-0.107832998037,135,0.0
1916,Pinar Del Rio Airport,Pinar Del Rio Norte,Cuba,QPD,MUPR,22.42140007019043,-83.67839813232422,131,-5.0
6009,Subic Bay International Airport,Olongapo City,Philippines,SFS,RPLB,14.794400215148926,120.27100372314452,64,8.0
627,Stauning Airport,Stauning,Denmark,STA,EKVJ,55.9901008605957,8.353910446166992,17,1.0
7804,Wycombe Air Park,Wycombe,United Kingdom,HYC,EGTB,51.6116981506,-0.8083329796790001,515,0.0
7610,Whitianga Airport,Whitianga,New Zealand,WTZ,NZWT,-36.83169937133789,175.6790008544922,10,12.0
7494,Rock Hill - York County Airport,Rock Hill,United States,RKH,KUZA,34.9878006,-81.05719757,666,-5.0
1213,Almería International Airport,Almeria,Spain,LEI,LEAM,36.84389877319336,-2.3701000213623047,70,1.0
2951,Vitebsk Vostochny Airport,Vitebsk,Belarus,VTB,UMII,55.126499176025,30.349599838257,682,3.0
43,Burwash Airport,Burwash,Canada,YDB,CYDB,61.37110137939453,-139.04100036621094,2647,-8.0
7048,Volk Field,Camp Douglas,United States,VOK,KVOK,43.938999176025,-90.253402709961,912,-6.0
1422,Saint-Nazaire-Montoir Airport,St.-nazaire,France,SNR,LFRZ,47.3105556,-2.1566667,13,1.0
2195,Salalah Airport,Salalah,Oman,SLL,OOSA,17.038700103759766,54.09130096435547,73,4.0
11277,Turtle Island Seaplane Base,Turtle Island,Fiji,TTL,NFUL,-16.966,177.368,0,12.0
3246,Mopah Airport,Merauke,Indonesia,MKQ,WAKK,-8.52029037475586,140.41799926757812,10,9.0
2539,Serafin Enoss Bertaso Airport,Chapeco,Brazil,XAP,SBCH,-27.134199142456,-52.656600952148,2146,-3.0
6339,Yorke Island Airport,Yorke Island,Australia,OKR,YYKI,-9.752801,143.405673,10,10.0
2852,Maturín Airport,Maturin,Venezuela,MUN,SVMT,9.75452995300293,-63.14739990234375,224,-4.0
13192,Delingha Airport,Haixi,China,HXD,ZLDL,37.125286,97.268658,9843,8.0
9824,Tazadit Airport,Zouerat,Mauritania,OUZ,GQPZ,22.75639915466309,-12.483599662780762,1129,0.0
7849,Richard Lloyd Jones Jr Airport,Tulsa,United States,RVS,KRVS,36.039600372314,-95.984596252441,638,-6.0
11863,Miller Field,Valentine,United States,VTN,KVTN,42.85779953,-100.5479965,2596,-6.0
31,Brandon Municipal Airport,Brandon,Canada,YBR,CYBR,49.91,-99.951897,1343,-6.0
1512,Falcone–Borsellino Airport,Palermo,Italy,PMO,LICJ,38.175999,13.091,65,1.0
895,Diego Garcia Naval Support Facility,Diego Garcia Island,British Indian Ocean Territory,NKW,FJDG,-7.31327,72.411102,9,6.0
13572,Baglung Airport,Baglung,Nepal,BGL,VNBL,28.212799072265625,83.66629791259766,3320,5.75
2955,Abakan Airport,Abakan,Russia,ABA,UNAA,53.7400016784668,91.38500213623048,831,7.0
6195,Vinh Airport,Vinh,Vietnam,VII,VVVH,18.7376003265,105.67099762,23,7.0
11255,Porter County Municipal Airport,Valparaiso IN,United States,VPZ,KVPZ,41.45399857,-87.00710297,770,-5.0
6481,Fullerton Municipal Airport,Fullerton,United States,FUL,KFUL,33.8720016479,-117.980003357,96,-8.0
4190,Astypalaia Airport,Astypalaia,Greece,JTY,LGPL,36.5798988342,26.3757991791,165,2.0
8244,Caçador Airport,Cacador,Brazil,CFC,SBCD,-26.78840065,-50.9398002625,3376,-3.0
8407,Handan Airport,Handan,China,HDG,ZBHD,36.5258333333,114.425555556,229,8.0
2624,Tefé Airport,Tefe,Brazil,TFF,SBTF,-3.38294005394,-64.7240982056,188,-4.0
3092,Dehradun Airport,Dehra Dun,India,DED,VIDN,30.189699,78.180298,1831,5.5
3175,Songkhla Airport,Songkhla,Thailand,SGZ,VTSH,7.186560153961182,100.60800170898438,12,7.0
5525,Nakina Airport,Nakina,Canada,YQN,CYQN,50.18280029296875,-86.69640350341797,1057,-5.0
9140,Safford Regional Airport,Safford,United States,SAD,KSAD,32.85480118,-109.6350021,3179,-7.0
8604,Grand Strand Airport,North Myrtle Beach,United States,CRE,KCRE,33.8116989136,-78.72389984130001,32,-5.0
7414,Shark El Oweinat International Airport,Sharq Al-Owainat,Egypt,GSQ,HEOW,22.5856990814209,28.71660041809082,859,2.0
7371,Soure Airport,Soure,Brazil,SFK,SNSW,-0.6994310021400452,-48.52099990844727,43,-3.0
2252,Cassidy International Airport,Kiritimati,Kiribati,CXI,PLCH,1.9861600399017327,-157.35000610351562,5,-12.0
3023,Maharana Pratap Airport,Udaipur,India,UDR,VAUD,24.6177005768,73.89610290530001,1684,5.5
3396,Xichang Qingshan Airport,Xichang,China,XIC,ZUXC,27.98909950256348,102.18399810791016,5112,8.0
1132,Luxor International Airport,Luxor,Egypt,LXR,HELX,25.671,32.7066,294,2.0
8320,Pike County-Hatcher Field,Pikeville,United States,PVL,KPBX,37.5617981,-82.56639862,1473,-5.0
2278,Hualien Airport,Hualien,Taiwan,HUN,RCYU,24.023099899291992,121.61799621582033,52,8.0
11020,Nadunumu Airport,Nadunumu,Papua New Guinea,NDN,AYNC,-9.14355555556,147.68425,5100,10.0
386,Bayreuth Airport,Bayreuth,Germany,BYU,EDQD,49.985001,11.64,1601,1.0
2966,Astrakhan Airport,Astrakhan,Russia,ASF,URWA,46.2832984924,48.0063018799,-65,4.0
984,Nampula Airport,Nampula,Mozambique,APL,FQNP,-15.105600357055664,39.28179931640625,1444,2.0
11131,Banning Municipal Airport,Banning,United States,BNG,KBNG,33.9230995178,-116.850997925,2219,-8.0
10156,Yeysk Airport,Eysk,Russia,EIK,URKE,46.68,38.21,60,3.0
1536,Bolzano Airport,Bolzano,Italy,BZO,LIPB,46.460201,11.3264,789,1.0
3217,Kyaukpyu Airport,Kyaukpyu,Burma,KYP,VYKP,19.42639923095703,93.53479766845705,20,6.5
4026,Knox County Regional Airport,Rockland,United States,RKD,KRKD,44.06010056,-69.09919739,56,-5.0
1133,Mersa Matruh Airport,Mersa-matruh,Egypt,MUH,HEMM,31.3253993988,27.2217006683,94,2.0
6754,Sugraly Airport,Zarafshan,Uzbekistan,AFS,UTSN,41.61389923095703,64.23320007324219,1396,5.0
6743,Hami Airport,Hami,China,HMI,ZWHM,42.8414,93.669197,2703,8.0
2769,Teniente Av. Jorge Henrich Arauz Airport,Trinidad,Bolivia,TDD,SLTR,-14.8186998367,-64.9179992676,509,-4.0
8142,Columbia Gorge Regional the Dalles Municipal Airport,The Dalles,United States,DLS,KDLS,45.6184997559,-121.166999817,247,-8.0
536,Islay Airport,Islay,United Kingdom,ILY,EGPI,55.68190002441406,-6.256669998168945,56,0.0
1895,Cap Haitien International Airport,Cap Haitien,Haiti,CAP,MTCH,19.733,-72.194702,10,-5.0
2649,Diego Aracena Airport,Iquique,Chile,IQQ,SCDA,-20.535200119018555,-70.1812973022461,155,-4.0
6317,Parkes Airport,Parkes,Australia,PKE,YPKS,-33.131401062,148.238998413,1069,10.0
2378,Gimpo International Airport,Seoul,South Korea,GMP,RKSS,37.5583,126.791,59,9.0
13080,Prairie Du Chien Municipal Airport,Prairie du Chien,United States,PCD,KPDC,43.019298553467,-91.12370300293,661,-6.0
3689,Imperial County Airport,Imperial,United States,IPL,KIPL,32.834201812699995,-115.57900238,-54,-8.0
1959,Rarotonga International Airport,Avarua,Cook Islands,RAR,NCRG,-21.2026996613,-159.805999756,19,-10.0
6071,Escuela Mariscal Sucre Airport,Maracay,Venezuela,MYC,SVBS,10.249978065490724,-67.64942169189453,1338,-4.0
6189,Cam Ranh Airport,Nha Trang,Vietnam,CXR,VVCR,11.99820041656494,109.21900177001952,40,7.0
3885,Suvarnabhumi Airport,Bangkok,Thailand,BKK,VTBS,13.681099891662598,100.74700164794922,5,7.0
10363,Hechi Jinchengjiang Airport,Hechi,China,HCJ,ZGHC,24.805,107.6997,2221,8.0
5610,Limpopo Valley Airport,Tuli Lodge,Botswana,TLD,FBTL,-22.1891994476,29.1268997192,1772,2.0
9183,Martin State Airport,Baltimore,United States,MTN,KMTN,39.325699,-76.413803,21,-5.0
10160,Erenhot Saiwusu International Airport,Erenhot,China,ERL,ZBER,43.4225,112.096667,3301,8.0
7772,Oristano-Fenosu Airport,Oristano,Italy,FNU,LIER,39.895308,8.642661,36,1.0
9779,Clinton Sherman Airport,Clinton,United States,CSM,KCSM,35.3398017883,-99.2005004883,1922,-6.0
6432,Jiayuguan Airport,Jiayuguan,China,JGN,ZLJQ,39.856899,98.3414,5112,8.0
4339,Yampa Valley Airport,Hayden,United States,HDN,KHDN,40.48120117,-107.2180023,6606,-7.0
78,Kamloops Airport,Kamloops,Canada,YKA,CYKA,50.7022018433,-120.444000244,1133,-8.0
6187,Buon Ma Thuot Airport,Buonmethuot,Vietnam,BMV,VVBM,12.668299675,108.120002747,1729,7.0
3382,Kunming Changshui International Airport,Kunming,China,KMG,ZPPP,25.1019444,102.9291667,6903,8.0
204,CFB Greenwood,Greenwood,Canada,YZX,CYZX,44.98440170288086,-64.91690063476562,92,-4.0
3318,Northern Peninsula Airport,Amberley,Australia,ABM,YBAM,-10.9508,142.459,34,10.0
7116,Central Airport,Central,United States,CEM,PACE,65.57379913,-144.7830048,937,-9.0
8230,Saint-Laurent-du-Maroni Airport,Saint-Laurent-du-Maroni,French Guiana,LDX,SOOM,5.48306,-54.034401,16,-3.0
2747,Jorge E. Gonzalez Torres Airport,San Jose Del Guaviare,Colombia,SJE,SKSJ,2.57969,-72.6394,605,-5.0
7480,Leshukonskoye Airport,Arkhangelsk,Russia,LDG,ULAL,64.8960037231,45.7229995728,220,3.0
8625,Wilkes Barre Wyoming Valley Airport,Wilkes-Barre,United States,WBW,KWBW,41.2971992493,-75.8511962891,545,-5.0
1475,Skiathos Island National Airport,Skiathos,Greece,JSI,LGSK,39.17710113525391,23.503700256347656,54,2.0
7627,Fitiuta Airport,Fiti\'uta,American Samoa,FTI,NSFQ,-14.2172,-169.425003,110,-11.0
14100,Ramon Airport,Eilat,Israel,ETM,LLER,29.723694,35.011416,288,2.0
7856,El Alamein International Airport,Dabaa City,Egypt,DBB,HEAL,30.92449951171875,28.46139907836914,143,2.0
2030,Queenstown International Airport,Queenstown International,New Zealand,ZQN,NZQN,-45.0210990906,168.738998413,1171,12.0
2396,Yonaguni Airport,Yonaguni Jima,Japan,OGN,ROYN,24.46689987182617,122.97799682617188,70,9.0
2969,Magnitogorsk International Airport,Magnetiogorsk,Russia,MQF,USCM,53.39310073852539,58.75569915771485,1430,5.0
188,Goose Bay Airport,Goose Bay,Canada,YYR,CYYR,53.3191986084,-60.4258003235,160,-4.0
2636,Major Brigadeiro Trompowsky Airport,Varginha,Brazil,VAG,SBVG,-21.5900993347,-45.4733009338,3025,-3.0
177,North Bay Jack Garland Airport,North Bay,Canada,YYB,CYYB,46.363602,-79.422798,1215,-5.0
4225,Las Vegas Municipal Airport,Las Vegas,United States,LVS,KLVS,35.6542015076,-105.141998291,6877,-7.0
8265,Telfer Airport,Telfer,Australia,TEF,YTEF,-21.71500015258789,122.22899627685548,970,8.0
1551,Venice Marco Polo Airport,Venice,Italy,VCE,LIPZ,45.505299,12.3519,7,1.0
11861,University Oxford Airport,Oxford,United States,UOX,KUOX,34.384300231934,-89.536796569824,452,-6.0
3465,East Texas Regional Airport,Longview,United States,GGG,KGGG,32.38399887084961,-94.71150207519533,365,-6.0
3328,Proserpine Whitsunday Coast Airport,Prosserpine,Australia,PPP,YBPN,-20.4950008392,148.552001953,82,10.0
3850,Hobart Regional Airport,Hobart,United States,HBR,KHBR,34.991317,-99.051313,1563,-6.0
7117,Shungnak Airport,Shungnak,United States,SHG,PAGH,66.88809967041,-157.16200256348,197,-9.0
3999,Darwin International Airport,Darwin,Australia,DRW,YPDN,-12.41469955444336,130.8769989013672,103,9.5
519,Hawarden Airport,Hawarden,United Kingdom,CEG,EGNR,53.1781005859375,-2.977780103683472,45,0.0
540,Dundee Airport,Dundee,United Kingdom,DND,EGPN,56.45249938964844,-3.025830030441284,17,0.0
2106,Bushehr Airport,Bushehr,Iran,BUZ,OIBB,28.9447994232,50.8345985413,68,3.5
4362,Talagi Airport,Arkhangelsk,Russia,ARH,ULAA,64.60030364990234,40.71670150756836,62,3.0
2518,Conceição do Araguaia Airport,Conceicao Do Araguaia,Brazil,CDJ,SBAA,-8.348349571228027,-49.30149841308594,653,-3.0
600,Ireland West Knock Airport,Connaught,Ireland,NOC,EIKN,53.910301208496094,-8.818490028381348,665,0.0
13808,Mchauru Airport,Geita,Tanzania,GIT,HTRU,-2.813667,32.172472,3955,3.0
708,Malmö Sturup Airport,Malmoe,Sweden,MMX,ESMS,55.536305364,13.3761978149,236,1.0
1552,Siena-Ampugnano Airport,Siena,Italy,SAY,LIQS,43.256302,11.255,634,1.0
9247,Parry Sound Area Municipal Airport,Parry Sound,Canada,YPD,CNK4,45.2575,-79.829697,832,-5.0
8974,Changhai Airport,Changhai,China,CNI,ZYCH,39.2666666667,122.666944444,80,8.0
2912,Manas International Airport,Bishkek,Kyrgyzstan,FRU,UAFM,43.0612983704,74.4776000977,2058,6.0
3924,Muhammad Salahuddin Airport,Bima,Indonesia,BMU,WADB,-8.5396499633789,118.68699645996,3,8.0
5901,Lamap Airport,Lamap,Vanuatu,LPM,NVSL,-16.4611228,167.829253,7,11.0
6052,La Pedrera Airport,La Pedrera,Colombia,LPD,SKLP,-1.32861,-69.5797,590,-5.0
21,Sault Ste Marie Airport,Sault Sainte Marie,Canada,YAM,CYAM,46.48500061035156,-84.5093994140625,630,-5.0
3454,Eppley Airfield,Omaha,United States,OMA,KOMA,41.3032,-95.894096,984,-6.0
6383,Lianyungang Airport,Lianyungang,China,LYG,ZSLG,34.571667,118.873611,0,8.0
3459,Dane County Regional Truax Field,Madison,United States,MSN,KMSN,43.13990020751953,-89.3375015258789,887,-6.0
7490,Al Najaf International Airport,Najaf,Iraq,NJF,ORNI,31.989853,44.404317,103,3.0
3618,Menominee Regional Airport,Macon,United States,MNM,KMNM,45.126701,-87.638397,625,-6.0
8469,Hiroshimanishi Airport,Hiroshima,Japan,HIW,RJBH,34.36690139770508,132.41400146484375,15,9.0
9821,Suntar Airport,Suntar,Russia,SUY,UENS,62.185001373291,117.63500213623,452,9.0
4372,Pskov Airport,Pskov,Russia,PKV,ULOO,57.78390121459961,28.39559936523437,154,3.0
7840,Southern Wisconsin Regional Airport,Janesville,United States,JVL,KJVL,42.620300293,-89.0416030884,808,-6.0
2449,El Palomar Airport,El Palomar,Argentina,EPA,SADP,-34.6099,-58.6126,59,-3.0
7068,Mc Cook Ben Nelson Regional Airport,McCook,United States,MCK,KMCK,40.20629883,-100.5920029,2583,-6.0
3179,Phuket International Airport,Phuket,Thailand,HKT,VTSP,8.1132,98.316902,82,7.0
3353,Christmas Island Airport,Christmas Island,Christmas Island,XCH,YPXM,-10.450599670410156,105.69000244140624,916,7.0
3742,Selfridge Air National Guard Base Airport,Mount Clemens,United States,MTC,KMTC,42.613463,-82.836919,580,-5.0
2132,Qazvin Airport,Ghazvin,Iran,GZW,OIIK,36.240101,50.0471,4184,3.5
4007,Asheville Regional Airport,Asheville,United States,AVL,KAVL,35.43619918823242,-82.54180145263672,2165,-5.0
8762,Rio Amazonas Airport,Pastaza,Ecuador,PTZ,SESM,-1.5052399635299998,-78.0626983643,3465,-5.0
8713,Hola Airport,Hola,Kenya,HOA,HKHO,-1.5219999551773071,40.00400161743164,195,3.0
335,Cottbus-Drewitz Airport,Cottbus,Germany,CBU,EDCD,51.889442,14.531944,272,1.0
4202,Laoag International Airport,Laoag,Philippines,LAO,RPLI,18.1781005859375,120.53199768066406,25,8.0
1633,João Paulo II Airport,Ponta Delgada,Portugal,PDL,LPPD,37.7411994934,-25.6979007721,259,-1.0
1130,Hurghada International Airport,Hurghada,Egypt,HRG,HEGN,27.178300857543945,33.799400329589844,52,2.0
973,São Tomé International Airport,Sao Tome,Sao Tome and Principe,TMS,FPST,0.3781749904155731,6.712150096893311,33,0.0
10017,San Gabriel Valley Airport,El Monte,United States,EMT,KEMT,34.086102,-118.035004,296,-8.0
6316,Gove Airport,Gove,Australia,GOV,YPGV,-12.269399642899998,136.817993164,192,9.5
5726,Southeast Iowa Regional Airport,Burlington,United States,BRL,KBRL,40.783199310302734,-91.12550354003906,698,-6.0
2219,Peshawar International Airport,Peshawar,Pakistan,PEW,OPPS,33.993900299072266,71.51460266113281,1158,5.0
1251,Santander Airport,Santander,Spain,SDR,LEXJ,43.42710113525391,-3.82000994682312,16,1.0
907,Kenneth Kaunda International Airport Lusaka,Lusaka,Zambia,LUN,FLLS,-15.3308000565,28.4526004791,3779,2.0
1956,San Salvador Airport,Cockburn Town,Bahamas,ZSA,MYSM,24.06329917907715,-74.52400207519531,24,-5.0
9543,Ogden Hinckley Airport,Ogden,United States,OGD,KOGD,41.195899963379,-112.0120010376,4473,-7.0
4108,Yaoqiang Airport,Jinan,China,TNA,ZSJN,36.857200622558594,117.21600341796876,76,8.0
6392,Wenzhou Longwan International Airport,Wenzhou,China,WNZ,ZSWZ,27.912201,120.851997,0,8.0
6284,Lake Evella Airport,Lake Evella,Australia,LEL,YLEV,-12.498900413513184,135.80599975585938,256,9.5
8052,Prospect Creek Airport,Prospect Creek,United States,PPC,PAPR,66.814102172852,-150.64399719238,1095,-9.0
6369,Arvaikheer Airport,Arvaikheer,Mongolia,AVK,ZMAH,46.250301361083984,102.802001953125,5932,8.0
4274,Nizhny Novgorod Strigino International Airport,Nizhniy Novgorod,Russia,GOJ,UWGG,56.230098724365,43.784000396729,256,3.0
2609,Plácido de Castro Airport,Rio Branco,Brazil,RBR,SBRB,-9.868888854980469,-67.89805603027344,633,-5.0
5516,Wemindji Airport,Wemindji,Canada,YNC,CYNC,53.01060104370117,-78.83110046386719,66,-5.0
6038,Frank Miloye Milenkowichi–Marília State Airport,Marília,Brazil,MII,SBML,-22.1968994141,-49.926399231,2122,-3.0
4287,Bemidji Regional Airport,Bemidji,United States,BJI,KBJI,47.50939941,-94.93370056,1391,-6.0
2963,Stavropol Shpakovskoye Airport,Stavropol,Russia,STW,URMT,45.10919952392578,42.11280059814453,1486,3.0
3061,Lok Nayak Jayaprakash Airport,Patina,India,PAT,VEPT,25.591299057,85.0879974365,170,5.5
3753,Sioux Gateway Col. Bud Day Field,Sioux City,United States,SUX,KSUX,42.40259933,-96.38439941,1098,-6.0
2881,Pointe-à-Pitre Le Raizet,Pointe-a-pitre,Guadeloupe,PTP,TFFR,16.265301,-61.531799,36,-4.0
2502,Brigadier D.H.E. Ruiz Airport,Colonel Suarez,Argentina,CSZ,SAZC,-37.446098,-61.889301,767,-3.0
11658,Dulkaninna Airport,Dulkaninna,Australia,DLK,YDLK,-29.0132999420166,138.4810028076172,0,9.5
5571,Westray Airport,Westray,United Kingdom,WRY,EGEW,59.3502998352,-2.95000004768,29,0.0
5437,Wapenamanda Airport,Wapenamanda,Papua New Guinea,WBM,AYWD,-5.64330005645752,143.89500427246094,5889,10.0
2320,Gifu Airport,Gifu,Japan,QGU,RJNG,35.394100189208984,136.8699951171875,128,9.0
2045,Whangarei Airport,Whangarei,New Zealand,WRE,NZWR,-35.7682991027832,174.36500549316406,133,12.0
5441,Qeqertarsuaq Heliport,Qeqertarsuaq Airport,Greenland,JGO,BGGN,69.251181993,-53.5148763657,9,-3.0
7416,Awassa Airport,Awasa,Ethiopia,AWA,HALA,7.066999912261963,38.5,5450,3.0
1821,General Francisco J. Mujica International Airport,Morelia,Mexico,MLM,MMMM,19.849899292,-101.025001526,6033,-6.0
6007,Sacheon Air Base/Airport,Sacheon,South Korea,HIN,RKPS,35.088591,128.071747,25,9.0
2234,Basrah International Airport,Basrah,Iraq,BSR,ORMM,30.54910087585449,47.66210174560547,11,3.0
3731,San Diego International Airport,San Diego,United States,SAN,KSAN,32.7336006165,-117.190002441,17,-8.0
96,Matagami Airport,Matagami,Canada,YNM,CYNM,49.76169967651367,-77.80280303955078,918,-5.0
8076,Al Maktoum International Airport,Dubai,United Arab Emirates,DWC,OMDW,24.896356,55.161389,114,4.0
1246,Valencia Airport,Valencia,Spain,VLC,LEVC,39.4893,-0.481625,240,1.0
2821,General José Antonio Anzoategui International Airport,Barcelona,Venezuela,BLA,SVBC,10.111111,-64.692222,30,-4.0
946,Cabinda Airport,Cabinda,Angola,CAB,FNCA,-5.59699010848999,12.188400268554688,66,1.0
1879,Golfito Airport,Golfito,Costa Rica,GLF,MRGF,8.654009819030762,-83.18219757080078,49,-6.0
7062,Shenandoah Valley Regional Airport,Weyers Cave,United States,SHD,KSHD,38.2638015747,-78.8964004517,1201,-5.0
2051,Kandahar Airport,Kandahar,Afghanistan,KDH,OAKN,31.505800247192383,65.8478012084961,3337,4.5
504,Farnborough Airport,Farnborough,United Kingdom,FAB,EGLF,51.2757987976,-0.776332974434,238,0.0
10135,San Cristobal de las Casas Airport,San Cristobal de las Casas,Mexico,SZT,MMSC,16.690299987793,-92.530097961426,7707,-6.0
8771,Lompoc Airport,Lompoc,United States,LPC,KLPC,34.665599823,-120.468002319,88,-8.0
6210,Warukin Airport,Tanjung-Borneo Island,Indonesia,TJG,WAON,-2.21655988693,115.435997009,197,8.0
3094,Gwalior Airport,Gwalior,India,GWL,VIGR,26.29330062866211,78.22779846191406,617,5.5
1713,Cengiz Topel Airport,Topel,Turkey,KCO,LTBQ,40.73500061035156,30.08329963684082,182,3.0
3355,Canberra International Airport,Canberra,Australia,CBR,YSCB,-35.30690002441406,149.19500732421875,1886,10.0
666,Stavanger Airport Sola,Stavanger,Norway,SVG,ENZV,58.876701354,5.6377801895,29,1.0
1468,Mikonos Airport,Mykonos,Greece,JMK,LGMK,37.43510055541992,25.348100662231445,405,2.0
1798,General Pedro Jose Mendez International Airport,Ciudad Victoria,Mexico,CVM,MMCV,23.7033004761,-98.9564971924,761,-6.0
976,Inhambane Airport,Inhambane,Mozambique,INH,FQIN,-23.876399993896484,35.40850067138672,30,2.0
8137,Red Bluff Municipal Airport,Red Bluff,United States,RBL,KRBL,40.1506996155,-122.251998901,352,-8.0
3724,Ogdensburg International Airport,Ogdensburg,United States,OGS,KOGS,44.6819000244,-75.46549987790002,297,-5.0
11070,Brewster Field,Holdredge,United States,HDE,KHDE,40.452099,-99.336502,2313,-5.0
3563,Pensacola Naval Air Station/Forrest Sherman Field,Pensacola,United States,NPA,KNPA,30.35269928,-87.31860352,28,-6.0
6143,Nadym Airport,Nadym,Russia,NYM,USMM,65.48090362548828,72.69889831542969,49,5.0
1764,Cibao International Airport,Santiago,Dominican Republic,STI,MDST,19.406099319458008,-70.60469818115234,565,-4.0
2894,Hewanorra International Airport,Hewandorra,Saint Lucia,UVF,TLPL,13.7332,-60.952599,14,-4.0
4193,Milos Airport,Milos,Greece,MLO,LGML,36.696899,24.4769,10,2.0
1399,Lille-Lesquin Airport,Lille,France,LIL,LFQQ,50.563332,3.086886,157,1.0
2503,Olavarria Airport,Olavarria,Argentina,OVR,SAZF,-36.8899993896,-60.2165985107,551,-3.0
2415,Dr.Juan C. Angara Airport,Baler,Philippines,BQA,RPUR,15.729309,121.500034,108,8.0
2243,Rota International Airport,Rota,Northern Mariana Islands,ROP,PGRO,14.17430019378662,145.2429962158203,607,10.0
3249,Mutiara Airport,Palu,Indonesia,PLW,WAML,-0.9185420274734496,119.91000366210938,284,8.0
2883,Cyril E. King Airport,St. Thomas,Virgin Islands,STT,TIST,18.337299346923828,-64.97339630126953,23,-4.0
1559,Latina Air Base,Latina,Italy,QLT,LIRL,41.5424,12.909,94,1.0
7621,Bartow Municipal Airport,Bartow,United States,BOW,KBOW,27.9433994293,-81.78340148930002,125,-5.0
6745,Tugdan Airport,Romblon,Philippines,TBH,RPVU,12.3109998703,122.084999084,10,8.0
7182,Selawik Airport,Selawik,United States,WLK,PASK,66.60009766,-159.9859924,17,-9.0
5922,Fayzabad Airport,Faizabad,Afghanistan,FBD,OAFZ,37.121101,70.518097,3872,4.5
218,Mecheria Airport,Mecheria,Algeria,MZW,DAAY,33.535900116,-0.242353007197,3855,1.0
2768,Capitan Oriel Lea Plaza Airport,Tarija,Bolivia,TJA,SLTJ,-21.5557003021,-64.7013015747,6079,-4.0
8553,Tri State Steuben County Airport,Angola,United States,ANQ,KANQ,41.639702,-85.083504,995,-5.0
11755,Hope Airport,Hope,Canada,YHE,CYHE,49.3683013916,-121.498001099,128,-8.0
10618,Borroloola Airport,Borroloola,Australia,BOX,YBRL,-16.075300216674805,136.302001953125,55,9.5
953,Menongue Airport,Menongue,Angola,SPP,FNME,-14.657600402832031,17.71980094909668,4469,1.0
3910,Iskandar Airport,Pangkalan Bun,Indonesia,PKN,WAOI,-2.70519995689,111.672996521,75,7.0
6245,Burketown Airport,Burketown,Australia,BUC,YBKT,-17.748600006103516,139.53399658203125,21,10.0
5501,Nemiscau Airport,Nemiscau,Canada,YNS,CYHH,51.69110107421875,-76.1355972290039,802,-5.0
12676,Glasgow Municipal Airport,Glasgow,United States,GLW,KGLW,37.03179932,-85.9536972,716,-6.0
901,Garoua International Airport,Garoua,Cameroon,GOU,FKKR,9.33588981628418,13.370100021362305,794,1.0
11332,Sawan Airport,Sindh,Pakistan,RZS,OPSW,26.9662,68.878098,160,5.0
5589,"Vardø Airport, Svartnes",Vardø,Norway,VAW,ENSS,70.355400085449,31.044900894165,42,1.0
13214,Siguiri Airport,Siguiri,Guinea,GII,GUSI,11.432999610901,-9.1669998168945,1296,0.0
3807,Reno Tahoe International Airport,Reno,United States,RNO,KRNO,39.49909973144531,-119.76799774169922,4415,-8.0
3842,Barksdale Air Force Base,Shreveport,United States,BAD,KBAD,32.5018005371,-93.6626968384,166,-6.0
11900,King Salman Abdulaziz Airport,,Saudi Arabia,DWD,OEDM,24.4499,44.121201,3026,3.0
9751,Washabo Airport,Washabo,Suriname,WSO,SMWS,5.215277,-57.185302,68,-3.0
6223,Radin Inten II (Branti) Airport,Bandar Lampung-Sumatra Island,Indonesia,TKG,WIAT,-5.240556,105.175556,282,7.0
5577,Donegal Airport,Dongloe,Ireland,CFN,EIDL,55.0442008972168,-8.340999603271484,30,0.0
4011,Manchester-Boston Regional Airport,Manchester NH,United States,MHT,KMHT,42.932598,-71.435699,266,-5.0
5434,Tabubil Airport,Tabubil,Papua New Guinea,TBG,AYTB,-5.27861,141.225998,1570,10.0
5758,Owensboro Daviess County Airport,Owensboro,United States,OWB,KOWB,37.74010086,-87.16680145,407,-6.0
5420,Chimbu Airport,Kundiawa,Papua New Guinea,CMU,AYCH,-6.024290084838867,144.9709930419922,4974,10.0
3055,Silchar Airport,Silchar,India,IXS,VEKU,24.9129009247,92.9786987305,352,5.5
5545,Masset Airport,Masset,Canada,ZMT,CZMT,54.02750015258789,-132.125,25,-8.0
241,Laghouat Airport,Laghouat,Algeria,LOO,DAUL,33.7644004822,2.92833995819,2510,1.0
2015,Hamilton International Airport,Hamilton,New Zealand,HLZ,NZHN,-37.8666992188,175.332000732,172,12.0
9844,Anshan Air Base,Anshan,China,AOG,ZYAS,41.105301,122.853996,0,8.0
7616,Ulawa Airport,Ulawa,Solomon Islands,RNA,AGAR,-9.86054358262,161.979546547,40,11.0
5470,Ogoki Post Airport,Ogoki Post,Canada,YOG,CNT3,51.6585998535,-85.9017028809,594,-5.0
1094,Nouakchott–Oumtounsy International Airport,Nouakschott,Mauritania,NKC,GQNO,18.31,-15.9697222,9,0.0
5717,Alamogordo White Sands Regional Airport,Alamogordo,United States,ALM,KALM,32.8399009705,-105.990997314,4200,-7.0
5629,Manja Airport,Manja,Madagascar,MJA,FMSJ,-21.426105,44.316509,787,3.0
17,Patreksfjörður Airport,Patreksfjordur,Iceland,PFJ,BIPA,65.555801,-23.965,11,0.0
465,Belfast International Airport,Belfast,United Kingdom,BFS,EGAA,54.6575012207,-6.21582984924,268,0.0
7177,Ambler Airport,Ambler,United States,ABL,PAFM,67.1063,-157.856989,334,-9.0
1048,Timbuktu Airport,Tombouctou,Mali,TOM,GATB,16.730499267578125,-3.007580041885376,863,0.0
8482,Grabtsevo Airport,Kaluga,Russia,KLF,UUBC,54.5499992371,36.3666687012,656,3.0
2600,Prefeito Doutor João Silva Filho Airport,Parnaiba,Brazil,PHB,SBPB,-2.89374995232,-41.73199844359999,16,-3.0
5568,Stronsay Airport,Stronsay,United Kingdom,SOY,EGER,59.1553001404,-2.64139008522,39,0.0
1980,Kaukura Airport,Kaukura Atoll,French Polynesia,KKR,NTGK,-15.663299560546877,-146.88499450683594,11,-10.0
6067,Alferez Fap David Figueroa Fernandini Airport,Huánuco,Peru,HUU,SPNC,-9.878809928894045,-76.20480346679688,6070,-5.0
2113,Lavan Island Airport,Lavan Island,Iran,LVP,OIBV,26.810300827026367,53.35630035400391,76,3.5
478,Manchester Airport,Manchester,United Kingdom,MAN,EGCC,53.35369873046875,-2.2749500274658203,257,0.0
13711,Lutselk'e Airport,Lutselk'e,Canada,YSG,CYLK,62.418303,-110.681998,596,-7.0
2660,De La Independencia Airport,Rancagua,Chile,QRC,SCRG,-34.17369842529297,-70.77570343017578,1446,-4.0
5456,Whistler/Green Lake Water Aerodrome,Whistler,Canada,YWS,CAE5,50.1436004639,-122.948997498,2100,-8.0
4105,Hosea Kutako International Airport,Windhoek,Namibia,WDH,FYWH,-22.4799,17.4709,5640,1.0
3387,Ningbo Lishe International Airport,Ninbo,China,NGB,ZSNB,29.82670021057129,121.46199798583984,13,8.0
2474,Libertador Gral D Jose De San Martin Airport,Posadas,Argentina,PSS,SARP,-27.3858,-55.9707,430,-3.0
6273,Hooker Creek Airport,Hooker Creek,Australia,HOK,YHOO,-18.3367004395,130.638000488,320,9.5
582,Maastricht Aachen Airport,Maastricht,Netherlands,MST,EHBK,50.911701,5.77014,375,1.0
6777,Capitan Corbeta CA Curbelo International Airport,Punta del Este,Uruguay,PDP,SULS,-34.855098724365234,-55.09429931640625,95,-3.0
6017,Tandag Airport,Tandag,Philippines,TDG,RPMW,9.072110176086426,126.1709976196289,16,8.0
8136,Prineville Airport,Prineville,United States,PRZ,KS39,44.286998748779,-120.90399932861,3250,-8.0
1331,Bourges Airport,Bourges,France,BOU,LFLD,47.058101654052734,2.3702800273895264,529,1.0
9392,Tadjoura Airport,Tadjoura,Djibouti,TDJ,HDTJ,11.782999992370604,42.91699981689453,246,3.0
621,Skrydstrup Air Base,Skrydstrup,Denmark,SKS,EKSP,55.221048,9.26702,141,1.0
5833,Mili Island Airport,Mili Island,Marshall Islands,MIJ,MLIP,6.08333,171.733002,4,12.0
4352,Norilsk-Alykel Airport,Norilsk,Russia,NSK,UOOO,69.31109619140625,87.33219909667969,574,7.0
12672,Marion County Brown Field,Jasper,United States,APT,KAPT,35.060699,-85.585297,641,-5.0
6088,Kostanay West Airport,Kostanay,Kazakhstan,KSN,UAUU,53.20690155029297,63.55030059814453,595,6.0
468,City of Derry Airport,Londonderry,United Kingdom,LDY,EGAE,55.04280090332031,-7.161109924316406,22,0.0
1100,Faranah Airport,Faranah,Guinea,FAA,GUFH,10.0354995728,-10.7698001862,1476,0.0
3482,Dalhart Municipal Airport,Dalhart,United States,DHT,KDHT,36.0225982666,-102.54699707,3991,-6.0
7991,Lee C Fine Memorial Airport,Kaiser Lake Ozark,United States,AIZ,KAIZ,38.0960006714,-92.54949951170002,869,-6.0
508,Southend Airport,Southend,United Kingdom,SEN,EGMC,51.5713996887207,0.6955559849739075,49,0.0
2361,Gwangju Airport,Kwangju,South Korea,KWJ,RKJJ,35.123173,126.805444,39,9.0
968,Omboue Hopital Airport,Omboue Hospial,Gabon,OMB,FOOH,-1.5747300386428833,9.262689590454102,33,1.0
7253,Kangiqsujuaq (Wakeham Bay) Airport,Kangiqsujuaq,Canada,YWB,CYKG,61.5886001587,-71.929397583,501,-5.0
1486,Thessaloniki Macedonia International Airport,Thessaloniki,Greece,SKG,LGTS,40.51969909667969,22.97089958190918,22,2.0
3941,Eleftherios Venizelos International Airport,Athens,Greece,ATH,LGAV,37.9364013672,23.9444999695,308,2.0